STARLINK-32421          
1 61628U 24191H   24320.91667824  .00003540  00000+0  66142-4 0  9998
2 61628  43.0000 356.9533 0001485 266.5314 305.4432 15.50573906  4850
STARLINK-32403          
1 61629U 24191J   24320.91667824  .00012226  00000+0  21397-3 0  9992
2 61629  43.0000 356.9434 0001519 265.8228 309.9877 15.50569831  4848
STARLINK-32390          
1 61630U 24191K   24320.91667824 -.00002806  00000+0 -42024-4 0  9990
2 61630  43.0000 356.9387 0001566 266.6152 311.1124 15.50572899  4796
STARLINK-32348          
1 61631U 24191L   24320.91667824 -.01525342  00000+0 -29852-1 0  9998
2 61631  42.9999 356.9351 0001484 267.6999 311.3161 15.49533031  4844
STARLINK-32455          
1 61632U 24191M   24320.91667824  .00010591  00000+0  18620-3 0  9994
2 61632  42.9999 356.9287 0001698 267.1059 314.4538 15.50564154  4857
STARLINK-32396          
1 61633U 24191N   24320.91667824 -.01531804  00000+0 -29159-1 0  9990
2 61633  43.0000 356.9238 0001340 255.9316 327.4951 15.50322315  4858
STARLINK-32355          
1 61634U 24191P   24320.91667824  .00018960  00000+0  32841-3 0  9995
2 61634  42.9999 356.9182 0001756 265.8879 319.5062 15.50562162  4847
STARLINK-32370          
1 61635U 24191Q   24320.91667824  .00012767  00000+0  22317-3 0  9992
2 61635  43.0001 356.9138 0001676 265.5819 321.7284 15.50567491  4848
STARLINK-32405          
1 61636U 24191R   24320.91667824  .00018040  00000+0  31277-3 0  9998
2 61636  42.9998 356.9082 0001752 269.0913 320.1361 15.50564259  4847
STARLINK-32419          
1 61637U 24191S   24320.91667824  .00025003  00000+0  43088-3 0  9999
2 61637  42.9998 356.9037 0001552 266.5819 324.5608 15.50563620  4857
STARLINK-32320          
1 61638U 24191T   24320.91667824 -.00027303  00000+0 -46085-3 0  9997
2 61638  42.9996 356.8986 0001703 264.0317 329.0079 15.50598606  4902
STARLINK-32341          
1 61639U 24191U   24320.91667824  .00029722  00000+0  51081-3 0  9995
2 61639  42.9997 356.8939 0001585 266.8606 328.1135 15.50563579  4848
STARLINK-32339          
1 61640U 24191V   24320.91667824  .00011702  00000+0  20508-3 0  9996
2 61640  42.9996 356.8837 0001806 265.2490 333.5633 15.50565456  4856
STARLINK-32327          
1 61641U 24191W   24320.91667824  .00010058  00000+0  17710-3 0  9991
2 61641  42.9997 356.8890 0001466 266.6547 330.2354 15.50570908  4848
STARLINK-32264          
1 61642U 24191X   24321.16667824 -.01513415  00000+0 -29083-1 0  9992
2 61642  42.9992 355.4147 0001572 261.6692 297.9815 15.50020725  4835
STARLINK-32337          
1 61643U 24191Y   24321.16667824 -.00007844  00000+0 -12798-3 0  9993
2 61643  42.9993 355.4191 0001431 261.7894 296.1265 15.50585079  4899
STARLINK-32238          
1 61661U 24193A   24320.91667824  .00067671  00000+0  11870-2 0  9998
2 61661  53.1590 160.1481 0001292  94.2816 134.0991 15.49954298  4311
STARLINK-32310          
1 61662U 24193B   24320.91667824  .00068285  00000+0  11975-2 0  9997
2 61662  53.1590 160.1440 0001312  88.2614 142.0367 15.49956714  4411
STARLINK-32308          
1 61663U 24193C   24321.16667824  .00037816  00000+0  66980-3 0  9999
2 61663  53.1584 158.9433 0001688  77.1900 110.7502 15.49935072  4319
STARLINK-32301          
1 61664U 24193D   24321.16667824 -.01545297  00000+0 -30766-1 0  9991
2 61664  53.1586 158.9350 0000951  71.7855 119.7547 15.49316702  4312
STARLINK-32439          
1 61665U 24193E   24320.91667824  .00069937  00000+0  12261-2 0  9994
2 61665  53.1590 160.1358 0001333  81.2323 152.8992 15.49954953  4365
STARLINK-32428          
1 61666U 24193F   24321.16667824 -.00002228  00000+0 -31161-4 0  9997
2 61666  53.1584 158.9309 0001143  62.4670 131.2445 15.50014413  4415
STARLINK-32414          
1 61667U 24193G   24320.91667824  .00072348  00000+0  12678-2 0  9998
2 61667  53.1589 160.1240 0001409  81.5185 158.3626 15.49952812  4400
STARLINK-32441          
1 61668U 24193H   24320.91667824  .00068967  00000+0  12093-2 0  9992
2 61668  53.1590 160.1199 0001456  99.0028 142.7933 15.49956111  4367
STARLINK-32400          
1 61669U 24193J   24320.91667824  .00069371  00000+0  12164-2 0  9992
2 61669  53.1589 160.1158 0001565 106.3829 137.3337 15.49953051  4406
STARLINK-32449          
1 61670U 24193K   24320.91667824  .00072711  00000+0  12742-2 0  9998
2 61670  53.1589 160.1124 0001187  90.7206 154.9073 15.49949748  4361
STARLINK-32453          
1 61671U 24193L   24321.16667824 -.00029480  00000+0 -51107-3 0  9993
2 61671  53.1584 158.9117 0000715  97.7363 105.5802 15.50013297  4366
STARLINK-32443          
1 61672U 24193M   24321.16667824 -.00031753  00000+0 -55121-3 0  9990
2 61672  53.1585 158.9076 0000877  72.9623 132.2706 15.50014426  4360
STARLINK-32417          
1 61673U 24193N   24321.16667824 -.00031841  00000+0 -55276-3 0  9990
2 61673  53.1584 158.9040 0000807  75.9540 131.1951 15.50014638  4416
STARLINK-32326          
1 61674U 24193P   24321.16667824 -.00028695  00000+0 -49718-3 0  9998
2 61674  53.1585 158.8991 0000901  79.4040 129.6604 15.50013902  4310
STARLINK-32294          
1 61675U 24193Q   24321.16667824 -.00025830  00000+0 -44661-3 0  9999
2 61675  53.1585 158.8950 0000813  80.7808 130.2014 15.50011765  4414
STARLINK-32309          
1 61676U 24193R   24321.16667824 -.00026385  00000+0 -45640-3 0  9994
2 61676  53.1586 158.8884 0000828  78.6366 136.1776 15.50012571  4318
STARLINK-32323          
1 61677U 24193S   24321.16667824 -.00024498  00000+0 -42311-3 0  9990
2 61677  53.1584 158.8919 0000844  85.2580 127.6405 15.50011214  4313
STARLINK-32363          
1 61678U 24193T   24321.16667824 -.00027139  00000+0 -46971-3 0  9992
2 61678  53.1585 158.8840 0000796  82.4740 134.2565 15.50013075  4364
STARLINK-32395          
1 61679U 24193U   24320.91667824  .00079463  00000+0  13907-2 0  9992
2 61679  53.1589 160.0767 0001406  86.6479 176.2306 15.49947276  4362
STARLINK-32412          
1 61680U 24193V   24320.91667824  .00077803  00000+0  13620-2 0  9992
2 61680  53.1589 160.0690 0001436  86.1934 180.5182 15.49949403  4413
STARLINK-32426          
1 61681U 24193W   24320.91667824  .00075236  00000+0  13178-2 0  9999
2 61681  53.1590 160.0733 0001469  84.8509 179.9449 15.49948572  4361
STARLINK-32429          
1 61682U 24193X   24321.16667824 -.00026673  00000+0 -46147-3 0  9994
2 61682  53.1585 158.8669 0000781  87.2390 137.1568 15.50013285  4364
SHENZHOU-19 (SZ-19)     
1 61683U 24194A   24319.84059492  .00045616  00000+0  58175-3 0  9994
2 61683  41.4673 244.2846 0003881 313.7517  46.2999 15.58483552202760
2024-194B               
1 61684U 24194B   24304.16570017 -.00002234  70709-5  00000+0 0  9994
2 61684  41.3050 339.9579 0264171 116.1457 292.8724 15.65002779    52
STARLINK-11335 [DTC]    
1 61687U 24195A   24320.91667824 -.00027045  00000+0 -16170-3 0  9990
2 61687  53.1605 228.0842 0000674  79.2910 318.2041 15.76739228  3823
STARLINK-11344 [DTC]    
1 61688U 24195B   24321.16667824  .00018021  00000+0  11401-3 0  9993
2 61688  53.1618 226.7836 0000546  52.6452 352.4735 15.76699009  3844
STARLINK-11312 [DTC]    
1 61689U 24195C   24321.16667824 -.00921476  00000+0 -57658-2 0  9996
2 61689  53.1641 226.7332 0000524  81.4771 348.3470 15.78582918  3844
STARLINK-11340 [DTC]    
1 61690U 24195D   24321.16667824 -.00884351  00000+0 -50161-2 0  9990
2 61690  53.1638 226.6974 0000611  66.7810  20.3014 15.80620688  3852
STARLINK-11339 [DTC]    
1 61691U 24195E   24321.08496799 -.00000174  00000+0  24662-5 0  9995
2 61691  53.1637 227.0671 0000702  82.7722 277.3382 15.83788607  3831
STARLINK-11315 [DTC]    
1 61692U 24195F   24321.14921086 -.00351700  00000+0 -16884-2 0  9994
2 61692  53.1642 226.7574 0000868  60.0781 300.0329 15.82848125  3851
STARLINK-11366 [DTC]    
1 61693U 24195G   24321.14752510 -.00017165  00000+0 -72841-4 0  9990
2 61693  53.1643 226.7458 0001367  61.4961 298.6201 15.83768595  3858
STARLINK-11348 [DTC]    
1 61694U 24195H   24320.95730879  .00004087  00000+0  21293-4 0  9995
2 61694  53.1640 227.6921 0001137  99.6291 260.4861 15.83794114  3827
STARLINK-11327 [DTC]    
1 61695U 24195J   24321.14621013  .00016884  00000+0  77651-4 0  9994
2 61695  53.1640 226.7371 0001181  70.1124 290.0028 15.83808535  3844
STARLINK-11341 [DTC]    
1 61696U 24195K   24321.14517677  .00002485  00000+0  14218-4 0  9997
2 61696  53.1641 226.7294 0001088  93.7010 266.4139 15.83793606  3854
STARLINK-11346 [DTC]    
1 61697U 24195L   24321.14435843  .00018051  00000+0  82825-4 0  9997
2 61697  53.1641 226.7247 0001362  88.2801 271.8379 15.83798151  3851
STARLINK-11336 [DTC]    
1 61698U 24195M   24321.14373779  .00020675  00000+0  94260-4 0  9998
2 61698  53.1639 226.7197 0000848  90.0207 270.0914 15.83821663  3842
STARLINK-11296 [DTC]    
1 61699U 24195N   24320.95372926  .00009487  00000+0  45076-4 0  9999
2 61699  53.1636 227.6675 0001251  71.6631 288.4529 15.83814140  3821
STARLINK-32349          
1 61700U 24195P   24321.16667824 -.01330859  00000+0 -10749-1 0  9999
2 61700  53.1587 226.9225 0000953  64.2397 270.5387 15.72929406  3696
STARLINK-32461          
1 61701U 24195Q   24320.91667824 -.01449205  00000+0 -11409-1 0  9992
2 61701  53.1586 228.1565 0000831  62.3248 297.5021 15.73771117  3673
STARLINK-32299          
1 61702U 24195R   24320.91667824 -.01456195  00000+0 -11477-1 0  9994
2 61702  53.1585 228.1530 0000864  98.0942 263.6795 15.73759675  3833
STARLINK-32335          
1 61703U 24195S   24321.16667824 -.01326244  00000+0 -10711-1 0  9994
2 61703  53.1584 226.9106 0000334  76.8928 263.6358 15.72926852  3857
STARLINK-32387          
1 61704U 24195T   24320.91667824 -.01440015  00000+0 -11339-1 0  9997
2 61704  53.1585 228.1404 0000793  84.9234 282.6055 15.73747217  3675
STARLINK-32515          
1 61705U 24195U   24320.91667824 -.01454586  00000+0 -11463-1 0  9994
2 61705  53.1584 228.1367 0000675  52.5171 316.9191 15.73760814  3673
